start=new Date('2022-05-21T00:00:00.000Z').valueOf();
sats=[{"SEMIMAJOR_AXIS":"6850.460","REV_AT_EPOCH":"16563","OBJECT_ID":"2019-029D","GP_ID":"204046258","NORAD_CAT_ID":"44238","OBJECT_TYPE":"PAYLOAD","COUNTRY_CODE":"US","APOAPSIS":"476.394","MEAN_ELEMENT_THEORY":"SGP4","OBJECT_NAME":"STARLINK-24","TLE_LINE1":"1 44238U 19029D   22140.70237022  .00114129  00000-0  36924-2 0  9998","TLE_LINE2":"2 44238  53.0050 240.2327 0005940 310.5542  49.4939 15.31169115165636","MEAN_MOTION_DDOT":"0.0000000000000","TIME_SYSTEM":"UTC","ECCENTRICITY":"0.00059400","RA_OF_ASC_NODE":"240.2327","CLASSIFICATION_TYPE":"U","LAUNCH_DATE":"2019-05-24","EPHEMERIS_TYPE":"0","RCS_SIZE":"LARGE","MEAN_MOTION":"15.31169115","EPOCH":"2022-05-20T16:51:24.787008","MEAN_MOTION_DOT":"0.00114129","PERIAPSIS":"468.256","MEAN_ANOMALY":"49.4939","BSTAR":"0.00369240000000","DECAY_DATE":null,"SITE":"AFETR","PERIOD":"94.046","REF_FRAME":"TEME","INCLINATION":"53.0050","FILE":"3455344","ARG_OF_PERICENTER":"310.5542","CENTER_NAME":"EARTH","ELEMENT_SET_NO":"999"},{"APOAPSIS":"432.575","MEAN_ELEMENT_THEORY":"SGP4","OBJECT_ID":"2019-029Q","GP_ID":"204045507","NORAD_CAT_ID":"44249","OBJECT_TYPE":"PAYLOAD","COUNTRY_CODE":"US","REV_AT_EPOCH":"16628","SEMIMAJOR_AXIS":"6799.812","TLE_LINE1":"1 44249U 19029Q   22140.43715866  .00225436  00000-0  40684-2 0  9999","TLE_LINE2":"2 44249  52.9700 197.7393 0016026  13.1640 346.9782 15.48308022166282","OBJECT_NAME":"STARLINK-61","ECCENTRICITY":"0.00160260","TIME_SYSTEM":"UTC","MEAN_MOTION_DDOT":"0.0000000000000","RCS_SIZE":"LARGE","EPHEMERIS_TYPE":"0","RA_OF_ASC_NODE":"197.7393","LAUNCH_DATE":"2019-05-24","CLASSIFICATION_TYPE":"U","EPOCH":"2022-05-20T10:29:30.508224","MEAN_MOTION":"15.48308022","BSTAR":"0.00406840000000","MEAN_ANOMALY":"346.9782","MEAN_MOTION_DOT":"0.00225436","PERIAPSIS":"410.780","SITE":"AFETR","PERIOD":"93.005","DECAY_DATE":null,"ELEMENT_SET_NO":"999","ARG_OF_PERICENTER":"13.1640","CENTER_NAME":"EARTH","INCLINATION":"52.9700","REF_FRAME":"TEME","FILE":"3455314"},{"MEAN_ELEMENT_THEORY":"SGP4","APOAPSIS":"469.186","OBJECT_TYPE":"PAYLOAD","COUNTRY_CODE":"US","OBJECT_ID":"2019-029T","GP_ID":"204039366","NORAD_CAT_ID":"44252","SEMIMAJOR_AXIS":"6843.254","REV_AT_EPOCH":"16464","TLE_LINE2":"2 44252  52.9957 237.1501 0005943 304.9958  55.0483 15.33588164164644","TLE_LINE1":"1 44252U 19029T   22140.55523252  .00099097  00000-0  29796-2 0  9995","OBJECT_NAME":"STARLINK-71","ECCENTRICITY":"0.00059430","TIME_SYSTEM":"UTC","MEAN_MOTION_DDOT":"0.0000000000000","RCS_SIZE":"LARGE","EPHEMERIS_TYPE":"0","CLASSIFICATION_TYPE":"U","LAUNCH_DATE":"2019-05-24","RA_OF_ASC_NODE":"237.1501","EPOCH":"2022-05-20T13:19:32.089728","MEAN_MOTION":"15.33588164","BSTAR":"0.00297960000000","MEAN_ANOMALY":"55.0483","PERIAPSIS":"461.052","MEAN_MOTION_DOT":"0.00099097","PERIOD":"93.897","SITE":"AFETR","DECAY_DATE":null,"ELEMENT_SET_NO":"999","ARG_OF_PERICENTER":"304.9958","CENTER_NAME":"EARTH","FILE":"3455160","INCLINATION":"52.9957","REF_FRAME":"TEME"},{"OBJECT_NAME":"STARLINK-1007","TLE_LINE2":"2 44713  53.0534 302.0793 0001530  75.6462 284.4696 15.06396207139566","TLE_LINE1":"1 44713U 19074A   22140.68726462  .00000683  00000-0  64720-4 0  9990","REV_AT_EPOCH":"13956","SEMIMAJOR_AXIS":"6925.360","COUNTRY_CODE":"US","OBJECT_TYPE":"PAYLOAD","OBJECT_ID":"2019-074A","GP_ID":"204047578","NORAD_CAT_ID":"44713","MEAN_ELEMENT_THEORY":"SGP4","APOAPSIS":"548.285","CLASSIFICATION_TYPE":"U","LAUNCH_DATE":"2019-11-11","RA_OF_ASC_NODE":"302.0793","EPHEMERIS_TYPE":"0","RCS_SIZE":"LARGE","MEAN_MOTION_DDOT":"0.0000000000000","TIME_SYSTEM":"UTC","ECCENTRICITY":"0.00015300","PERIAPSIS":"546.166","MEAN_MOTION_DOT":"0.00000683","MEAN_ANOMALY":"284.4696","BSTAR":"0.00006472000000","MEAN_MOTION":"15.06396207","EPOCH":"2022-05-20T16:29:39.663168","FILE":"3455397","REF_FRAME":"TEME","INCLINATION":"53.0534","CENTER_NAME":"EARTH","ARG_OF_PERICENTER":"75.6462","ELEMENT_SET_NO":"999","DECAY_DATE":null,"PERIOD":"95.592","SITE":"AFETR"},{"ELEMENT_SET_NO":"999","FILE":"3455160","INCLINATION":"53.0536","REF_FRAME":"TEME","ARG_OF_PERICENTER":"64.5452","CENTER_NAME":"EARTH","DECAY_DATE":null,"PERIOD":"95.592","SITE":"AFETR","BSTAR":"0.00007374700000","PERIAPSIS":"546.269","MEAN_MOTION_DOT":"0.00000817","MEAN_ANOMALY":"295.5678","EPOCH":"2022-05-20T12:48:05.366880","MEAN_MOTION":"15.06401724","RCS_SIZE":"LARGE","LAUNCH_DATE":"2019-11-11","CLASSIFICATION_TYPE":"U","RA_OF_ASC_NODE":"302.7949","EPHEMERIS_TYPE":"0","ECCENTRICITY":"0.00013570","MEAN_MOTION_DDOT":"0.0000000000000","TIME_SYSTEM":"UTC","TLE_LINE2":"2 44714  53.0536 302.7949 0001357  64.5452 295.5678 15.06401724139375","TLE_LINE1":"1 44714U 19074B   22140.53339545  .00000817  00000-0  73747-4 0  9995","OBJECT_NAME":"STARLINK-1008","MEAN_ELEMENT_THEORY":"SGP4","APOAPSIS":"548.148","SEMIMAJOR_AXIS":"6925.343","REV_AT_EPOCH":"13937","COUNTRY_CODE":"US","OBJECT_TYPE":"PAYLOAD","OBJECT_ID":"2019-074B","GP_ID":"204038679","NORAD_CAT_ID":"44714"},{"EPHEMERIS_TYPE":"0","RA_OF_ASC_NODE":"303.1380","CLASSIFICATION_TYPE":"U","LAUNCH_DATE":"2019-11-11","RCS_SIZE":"LARGE","TIME_SYSTEM":"UTC","MEAN_MOTION_DDOT":"0.0000000000000","ECCENTRICITY":"0.00016280","OBJECT_NAME":"STARLINK-1009","TLE_LINE1":"1 44715U 19074C   22140.45598969  .00000558  00000-0  56358-4 0  9995","TLE_LINE2":"2 44715  53.0541 303.1380 0001628  84.9164 275.2011 15.06402223139352","NORAD_CAT_ID":"44715","GP_ID":"204039405","OBJECT_ID":"2019-074C","OBJECT_TYPE":"PAYLOAD","COUNTRY_CODE":"US","SEMIMAJOR_AXIS":"6925.342","REV_AT_EPOCH":"13935","APOAPSIS":"548.334","MEAN_ELEMENT_THEORY":"SGP4","ARG_OF_PERICENTER":"84.9164","CENTER_NAME":"EARTH","REF_FRAME":"TEME","INCLINATION":"53.0541","FILE":"3455160","ELEMENT_SET_NO":"999","SITE":"AFETR","PERIOD":"95.592","DECAY_DATE":null,"MEAN_ANOMALY":"275.2011","MEAN_MOTION_DOT":"0.00000558","PERIAPSIS":"546.079","BSTAR":"0.00005635800000","MEAN_MOTION":"15.06402223","EPOCH":"2022-05-20T10:56:37.509216"},{"TLE_LINE2":"2 44716  53.0550 302.7597 0001478  88.3514 271.7644 15.06403943139351","TLE_LINE1":"1 44716U 19074D   22140.54076610  .00002307  00000-0  17372-3 0  9996","OBJECT_NAME":"STARLINK-1010","MEAN_ELEMENT_THEORY":"SGP4","APOAPSIS":"548.225","SEMIMAJOR_AXIS":"6925.336","REV_AT_EPOCH":"13935","OBJECT_TYPE":"PAYLOAD","COUNTRY_CODE":"US","GP_ID":"204038177","OBJECT_ID":"2019-074D","NORAD_CAT_ID":"44716","RCS_SIZE":"LARGE","CLASSIFICATION_TYPE":"U","LAUNCH_DATE":"2019-11-11","RA_OF_ASC_NODE":"302.7597","EPHEMERIS_TYPE":"0","ECCENTRICITY":"0.00014780","TIME_SYSTEM":"UTC","MEAN_MOTION_DDOT":"0.0000000000000","BSTAR":"0.00017372000000","PERIAPSIS":"546.178","MEAN_MOTION_DOT":"0.00002307","MEAN_ANOMALY":"271.7644","EPOCH":"2022-05-20T12:58:42.191040","MEAN_MOTION":"15.06403943","ELEMENT_SET_NO":"999","FILE":"3455160","REF_FRAME":"TEME","INCLINATION":"53.0550","ARG_OF_PERICENTER":"88.3514","CENTER_NAME":"EARTH","DECAY_DATE":null,"PERIOD":"95.592","SITE":"AFETR"},{"OBJECT_NAME":"STARLINK-1011","TLE_LINE2":"2 44717  53.0555 322.7461 0001860  51.4583 308.6573 15.06400003139097","TLE_LINE1":"1 44717U 19074E   22140.53892668  .00000762  00000-0  70069-4 0  9991","COUNTRY_CODE":"US","OBJECT_TYPE":"PAYLOAD","OBJECT_ID":"2019-074E","GP_ID":"204038427","NORAD_CAT_ID":"44717","SEMIMAJOR_AXIS":"6925.349","REV_AT_EPOCH":"13909","MEAN_ELEMENT_THEORY":"SGP4","APOAPSIS":"548.502","EPHEMERIS_TYPE":"0","CLASSIFICATION_TYPE":"U","LAUNCH_DATE":"2019-11-11","RA_OF_ASC_NODE":"322.7461","RCS_SIZE":"LARGE","TIME_SYSTEM":"UTC","MEAN_MOTION_DDOT":"0.0000000000000","ECCENTRICITY":"0.00018600","MEAN_ANOMALY":"308.6573","PERIAPSIS":"545.925","MEAN_MOTION_DOT":"0.00000762","BSTAR":"0.00007006900000","MEAN_MOTION":"15.06400003","EPOCH":"2022-05-20T12:56:03.265152","CENTER_NAME":"EARTH","ARG_OF_PERICENTER":"51.4583","FILE":"3455160","REF_FRAME":"TEME","INCLINATION":"53.0555","ELEMENT_SET_NO":"999","PERIOD":"95.592","SITE":"AFETR","DECAY_DATE":null},{"DECAY_DATE":null,"SITE":"AFETR","PERIOD":"95.592","REF_FRAME":"TEME","INCLINATION":"53.0584","FILE":"3455160","ARG_OF_PERICENTER":"83.7248","CENTER_NAME":"EARTH","ELEMENT_SET_NO":"999","MEAN_MOTION":"15.06396923","EPOCH":"2022-05-20T10:40:42.605184","MEAN_MOTION_DOT":"0.00000409","PERIAPSIS":"545.805","MEAN_ANOMALY":"276.3974","BSTAR":"0.00004640500000","MEAN_MOTION_DDOT":"0.0000000000000","TIME_SYSTEM":"UTC","ECCENTRICITY":"0.00020470","RA_OF_ASC_NODE":"303.1877","LAUNCH_DATE":"2019-11-11","CLASSIFICATION_TYPE":"U","EPHEMERIS_TYPE":"0","RCS_SIZE":"LARGE","REV_AT_EPOCH":"13935","SEMIMAJOR_AXIS":"6925.358","GP_ID":"204039179","OBJECT_ID":"2019-074F","NORAD_CAT_ID":"44718","COUNTRY_CODE":"US","OBJECT_TYPE":"PAYLOAD","APOAPSIS":"548.641","MEAN_ELEMENT_THEORY":"SGP4","OBJECT_NAME":"STARLINK-1012","TLE_LINE1":"1 44718U 19074F   22140.44493756  .00000409  00000-0  46405-4 0  9992","TLE_LINE2":"2 44718  53.0584 303.1877 0002047  83.7248 276.3974 15.06396923139358"},{"RCS_SIZE":"LARGE","LAUNCH_DATE":"2019-11-11","CLASSIFICATION_TYPE":"U","RA_OF_ASC_NODE":"303.1547","EPHEMERIS_TYPE":"0","ECCENTRICITY":"0.00015870","MEAN_MOTION_DDOT":"0.0000000000000","TIME_SYSTEM":"UTC","TLE_LINE2":"2 44719  53.0537 303.1547 0001587  79.5657 280.5511 15.06398743140488","TLE_LINE1":"1 44719U 19074G   22140.45230729  .00000888  00000-0  78539-4 0  9997","OBJECT_NAME":"STARLINK-1013","MEAN_ELEMENT_THEORY":"SGP4","APOAPSIS":"548.316","SEMIMAJOR_AXIS":"6925.352","REV_AT_EPOCH":"14048","COUNTRY_CODE":"US","OBJECT_TYPE":"PAYLOAD","OBJECT_ID":"2019-074G","GP_ID":"204038906","NORAD_CAT_ID":"44719","ELEMENT_SET_NO":"999","FILE":"3455160","REF_FRAME":"TEME","INCLINATION":"53.0537","CENTER_NAME":"EARTH","ARG_OF_PERICENTER":"79.5657","DECAY_DATE":null,"PERIOD":"95.592","SITE":"AFETR","BSTAR":"0.00007853900000","PERIAPSIS":"546.118","MEAN_MOTION_DOT":"0.00000888","MEAN_ANOMALY":"280.5511","EPOCH":"2022-05-20T10:51:19.349856","MEAN_MOTION":"15.06398743"}];
